[{"OBJECT_NAME":"STARLINK-5133","OBJECT_ID":"2022-125S","EPOCH":"2024-07-17T19:15:14.031072","MEAN_MOTION":15.08837602,"ECCENTRICITY":0.0001359,"INCLINATION":53.218,"RA_OF_ASC_NODE":31.835,"ARG_OF_PERICENTER":93.6394,"MEAN_ANOMALY":266.4754,"EPHEMERIS_TYPE":0,"CLASSIFICATION_TYPE":"U","NORAD_CAT_ID":53980,"ELEMENT_SET_NO":999,"REV_AT_EPOCH":9883,"BSTAR":-3.6221e-5,"MEAN_MOTION_DOT":-8.64e-6,"MEAN_MOTION_DDOT":0},{"OBJECT_NAME":"STARLINK-5149","OBJECT_ID":"2022-125T","EPOCH":"2024-07-18T04:46:53.823648","MEAN_MOTION":15.08837706,"ECCENTRICITY":0.0001202,"INCLINATION":53.2184,"RA_OF_ASC_NODE":15.1153,"ARG_OF_PERICENTER":82.888,"MEAN_ANOMALY":277.2249,"EPHEMERIS_TYPE":0,"CLASSIFICATION_TYPE":"U","NORAD_CAT_ID":53981,"ELEMENT_SET_NO":999,"REV_AT_EPOCH":9917,"BSTAR":-2.0232e-5,"MEAN_MOTION_DOT":-6.1e-6,"MEAN_MOTION_DDOT":0},{"OBJECT_NAME":"STARLINK-5120","OBJECT_ID":"2022-125U","EPOCH":"2024-07-17T19:55:41.610144","MEAN_MOTION":15.08842939,"ECCENTRICITY":0.0001197,"INCLINATION":53.2176,"RA_OF_ASC_NODE":27.0349,"ARG_OF_PERICENTER":97.5791,"MEAN_ANOMALY":262.5338,"EPHEMERIS_TYPE":0,"CLASSIFICATION_TYPE":"U","NORAD_CAT_ID":53982,"ELEMENT_SET_NO":999,"REV_AT_EPOCH":9889,"BSTAR":9.6044e-5,"MEAN_MOTION_DOT":1.241e-5,"MEAN_MOTION_DDOT":0},{"OBJECT_NAME":"STARLINK-5103","OBJECT_ID":"2022-125V","EPOCH":"2024-07-17T19:25:11.725536","MEAN_MOTION":15.08832171,"ECCENTRICITY":0.0001076,"INCLINATION":53.2173,"RA_OF_ASC_NODE":16.9262,"ARG_OF_PERICENTER":73.6591,"MEAN_ANOMALY":286.4519,"EPHEMERIS_TYPE":0,"CLASSIFICATION_TYPE":"U","NORAD_CAT_ID":53983,"ELEMENT_SET_NO":999,"REV_AT_EPOCH":9904,"BSTAR":7.0613e-5,"MEAN_MOTION_DOT":8.36e-6,"MEAN_MOTION_DDOT":0},{"OBJECT_NAME":"STARLINK-5142","OBJECT_ID":"2022-125W","EPOCH":"2024-07-17T20:11:37.073184","MEAN_MOTION":15.08830022,"ECCENTRICITY":0.0001378,"INCLINATION":53.2173,"RA_OF_ASC_NODE":27.1033,"ARG_OF_PERICENTER":81.2842,"MEAN_ANOMALY":278.8307,"EPHEMERIS_TYPE":0,"CLASSIFICATION_TYPE":"U","NORAD_CAT_ID":53984,"ELEMENT_SET_NO":999,"REV_AT_EPOCH":9890,"BSTAR":1.0386e-6,"MEAN_MOTION_DOT":-2.71e-6,"MEAN_MOTION_DDOT":0},{"OBJECT_NAME":"STARLINK-5147","OBJECT_ID":"2022-125X","EPOCH":"2024-07-17T18:46:50.312928","MEAN_MOTION":15.08836396,"ECCENTRICITY":0.0001559,"INCLINATION":53.2173,"RA_OF_ASC_NODE":27.4415,"ARG_OF_PERICENTER":100.5982,"MEAN_ANOMALY":259.5186,"EPHEMERIS_TYPE":0,"CLASSIFICATION_TYPE":"U","NORAD_CAT_ID":53985,"ELEMENT_SET_NO":999,"REV_AT_EPOCH":9889,"BSTAR":3.9861e-5,"MEAN_MOTION_DOT":3.46e-6,"MEAN_MOTION_DDOT":0},{"OBJECT_NAME":"STARLINK-5119","OBJECT_ID":"2022-125Y","EPOCH":"2024-07-17T19:03:57.875040","MEAN_MOTION":15.08834951,"ECCENTRICITY":0.0001303,"INCLINATION":53.2185,"RA_OF_ASC_NODE":16.8371,"ARG_OF_PERICENTER":80.1349,"MEAN_ANOMALY":279.9791,"EPHEMERIS_TYPE":0,"CLASSIFICATION_TYPE":"U","NORAD_CAT_ID":53986,"ELEMENT_SET_NO":999,"REV_AT_EPOCH":9903,"BSTAR":-0.00011654,"MEAN_MOTION_DOT":-2.142e-5,"MEAN_MOTION_DDOT":0},{"OBJECT_NAME":"STARLINK-5112","OBJECT_ID":"2022-125Z","EPOCH":"2024-07-17T20:16:55.310304","MEAN_MOTION":15.08838647,"ECCENTRICITY":0.0001273,"INCLINATION":53.2172,"RA_OF_ASC_NODE":27.1202,"ARG_OF_PERICENTER":86.6232,"MEAN_ANOMALY":273.4906,"EPHEMERIS_TYPE":0,"CLASSIFICATION_TYPE":"U","NORAD_CAT_ID":53987,"ELEMENT_SET_NO":999,"REV_AT_EPOCH":9890,"BSTAR":0.00010788,"MEAN_MOTION_DOT":1.429e-5,"MEAN_MOTION_DDOT":0},{"OBJECT_NAME":"STARLINK-5113","OBJECT_ID":"2022-125AA","EPOCH":"2024-07-17T20:06:18.577728","MEAN_MOTION":15.08839749,"ECCENTRICITY":0.0001166,"INCLINATION":53.2175,"RA_OF_ASC_NODE":27.0794,"ARG_OF_PERICENTER":75.7533,"MEAN_ANOMALY":284.3588,"EPHEMERIS_TYPE":0,"CLASSIFICATION_TYPE":"U","NORAD_CAT_ID":53988,"ELEMENT_SET_NO":999,"REV_AT_EPOCH":9889,"BSTAR":0.00011316,"MEAN_MOTION_DOT":1.514e-5,"MEAN_MOTION_DDOT":0},{"OBJECT_NAME":"STARLINK-5115","OBJECT_ID":"2022-125AB","EPOCH":"2024-07-17T20:01:00.415776","MEAN_MOTION":15.08834364,"ECCENTRICITY":0.0001159,"INCLINATION":53.2182,"RA_OF_ASC_NODE":27.0588,"ARG_OF_PERICENTER":79.905,"MEAN_ANOMALY":280.2073,"EPHEMERIS_TYPE":0,"CLASSIFICATION_TYPE":"U","NORAD_CAT_ID":53989,"ELEMENT_SET_NO":999,"REV_AT_EPOCH":9890,"BSTAR":-1.0856e-5,"MEAN_MOTION_DOT":-4.61e-6,"MEAN_MOTION_DDOT":0},{"OBJECT_NAME":"STARLINK-5075","OBJECT_ID":"2022-125AC","EPOCH":"2024-07-17T17:22:11.187840","MEAN_MOTION":15.38094326,"ECCENTRICITY":0.0001038,"INCLINATION":53.2166,"RA_OF_ASC_NODE":22.1689,"ARG_OF_PERICENTER":77.6312,"MEAN_ANOMALY":282.4809,"EPHEMERIS_TYPE":0,"CLASSIFICATION_TYPE":"U","NORAD_CAT_ID":53990,"ELEMENT_SET_NO":999,"REV_AT_EPOCH":9895,"BSTAR":1.7561e-5,"MEAN_MOTION_DOT":2.76e-6,"MEAN_MOTION_DDOT":0},{"OBJECT_NAME":"STARLINK-5118","OBJECT_ID":"2022-125AD","EPOCH":"2024-07-17T18:11:01.390272","MEAN_MOTION":15.08838197,"ECCENTRICITY":0.0001602,"INCLINATION":53.2183,"RA_OF_ASC_NODE":17.2564,"ARG_OF_PERICENTER":95.5789,"MEAN_ANOMALY":264.5386,"EPHEMERIS_TYPE":0,"CLASSIFICATION_TYPE":"U","NORAD_CAT_ID":53991,"ELEMENT_SET_NO":999,"REV_AT_EPOCH":9902,"BSTAR":-2.4572e-5,"MEAN_MOTION_DOT":-6.79e-6,"MEAN_MOTION_DDOT":0},{"OBJECT_NAME":"STARLINK-5108","OBJECT_ID":"2022-125AE","EPOCH":"2024-07-17T18:15:00.436608","MEAN_MOTION":15.08834816,"ECCENTRICITY":0.0001718,"INCLINATION":53.2184,"RA_OF_ASC_NODE":27.3104,"ARG_OF_PERICENTER":111.4878,"MEAN_ANOMALY":248.6297,"EPHEMERIS_TYPE":0,"CLASSIFICATION_TYPE":"U","NORAD_CAT_ID":53992,"ELEMENT_SET_NO":999,"REV_AT_EPOCH":9888,"BSTAR":5.5953e-5,"MEAN_MOTION_DOT":6.02e-6,"MEAN_MOTION_DDOT":0},{"OBJECT_NAME":"STARLINK-5121","OBJECT_ID":"2022-125AF","EPOCH":"2024-07-18T04:48:52.600320","MEAN_MOTION":15.08856904,"ECCENTRICITY":0.0001264,"INCLINATION":53.2183,"RA_OF_ASC_NODE":20.0866,"ARG_OF_PERICENTER":82.1711,"MEAN_ANOMALY":277.9425,"EPHEMERIS_TYPE":0,"CLASSIFICATION_TYPE":"U","NORAD_CAT_ID":53993,"ELEMENT_SET_NO":999,"REV_AT_EPOCH":9910,"BSTAR":0.0012767,"MEAN_MOTION_DOT":0.00020098,"MEAN_MOTION_DDOT":0},{"OBJECT_NAME":"STARLINK-5125","OBJECT_ID":"2022-125AG","EPOCH":"2024-07-17T19:34:28.678944","MEAN_MOTION":15.08834791,"ECCENTRICITY":0.0001283,"INCLINATION":53.2176,"RA_OF_ASC_NODE":26.9385,"ARG_OF_PERICENTER":93.9342,"MEAN_ANOMALY":266.1797,"EPHEMERIS_TYPE":0,"CLASSIFICATION_TYPE":"U","NORAD_CAT_ID":53994,"ELEMENT_SET_NO":999,"REV_AT_EPOCH":9890,"BSTAR":0.0001003,"MEAN_MOTION_DOT":1.309e-5,"MEAN_MOTION_DDOT":0},{"OBJECT_NAME":"STARLINK-5097","OBJECT_ID":"2022-125AH","EPOCH":"2024-07-17T18:09:42.048288","MEAN_MOTION":15.08836311,"ECCENTRICITY":0.0001485,"INCLINATION":53.2179,"RA_OF_ASC_NODE":27.2916,"ARG_OF_PERICENTER":110.5471,"MEAN_ANOMALY":249.5681,"EPHEMERIS_TYPE":0,"CLASSIFICATION_TYPE":"U","NORAD_CAT_ID":53995,"ELEMENT_SET_NO":999,"REV_AT_EPOCH":9888,"BSTAR":1.4918e-5,"MEAN_MOTION_DOT":-5.1e-7,"MEAN_MOTION_DDOT":0},{"OBJECT_NAME":"STARLINK-5131","OBJECT_ID":"2022-125AJ","EPOCH":"2024-07-17T19:29:09.864672","MEAN_MOTION":15.08840545,"ECCENTRICITY":0.0001303,"INCLINATION":53.2176,"RA_OF_ASC_NODE":26.9184,"ARG_OF_PERICENTER":96.7563,"MEAN_ANOMALY":263.3578,"EPHEMERIS_TYPE":0,"CLASSIFICATION_TYPE":"U","NORAD_CAT_ID":53996,"ELEMENT_SET_NO":999,"REV_AT_EPOCH":9890,"BSTAR":7.0924e-5,"MEAN_MOTION_DOT":8.41e-6,"MEAN_MOTION_DDOT":0}]
