STARLINK-5133           
1 53980U 22125S   24199.80224573 -.00000864  00000+0 -36221-4 0  9990
2 53980  53.2180  31.8350 0001359  93.6394 266.4754 15.08837602 98830
STARLINK-5149           
1 53981U 22125T   24200.19923407 -.00000610  00000+0 -20232-4 0  9992
2 53981  53.2184  15.1153 0001202  82.8880 277.2249 15.08837706 99170
STARLINK-5120           
1 53982U 22125U   24199.83034271  .00001241  00000+0  96044-4 0  9996
2 53982  53.2176  27.0349 0001197  97.5791 262.5338 15.08842939 98896
STARLINK-5103           
1 53983U 22125V   24199.80916349  .00000836  00000+0  70613-4 0  9992
2 53983  53.2173  16.9262 0001076  73.6591 286.4519 15.08832171 99045
STARLINK-5142           
1 53984U 22125W   24199.84140131 -.00000271  00000+0  10386-5 0  9991
2 53984  53.2173  27.1033 0001378  81.2842 278.8307 15.08830022 98902
STARLINK-5147           
1 53985U 22125X   24199.78252677  .00000346  00000+0  39861-4 0  9994
2 53985  53.2173  27.4415 0001559 100.5982 259.5186 15.08836396 98890
STARLINK-5119           
1 53986U 22125Y   24199.79441985 -.00002142  00000+0 -11654-3 0  9995
2 53986  53.2185  16.8371 0001303  80.1349 279.9791 15.08834951 99034
STARLINK-5112           
1 53987U 22125Z   24199.84508461  .00001429  00000+0  10788-3 0  9997
2 53987  53.2172  27.1202 0001273  86.6232 273.4906 15.08838647 98905
STARLINK-5113           
1 53988U 22125AA  24199.83771502  .00001514  00000+0  11316-3 0  9998
2 53988  53.2175  27.0794 0001166  75.7533 284.3588 15.08839749 98897
STARLINK-5115           
1 53989U 22125AB  24199.83403259 -.00000461  00000+0 -10856-4 0  9991
2 53989  53.2182  27.0588 0001159  79.9050 280.2073 15.08834364 98903
STARLINK-5075           
1 53990U 22125AC  24199.72374060  .00000276  00000+0  17561-4 0  9990
2 53990  53.2166  22.1689 0001038  77.6312 282.4809 15.38094326 98952
STARLINK-5118           
1 53991U 22125AD  24199.75765498 -.00000679  00000+0 -24572-4 0  9992
2 53991  53.2183  17.2564 0001602  95.5789 264.5386 15.08838197 99022
STARLINK-5108           
1 53992U 22125AE  24199.76042172  .00000602  00000+0  55953-4 0  9992
2 53992  53.2184  27.3104 0001718 111.4878 248.6297 15.08834816 98882
STARLINK-5121           
1 53993U 22125AF  24200.20060880  .00020098  00000+0  12767-2 0  9996
2 53993  53.2183  20.0866 0001264  82.1711 277.9425 15.08856904 99109
STARLINK-5125           
1 53994U 22125AG  24199.81560971  .00001309  00000+0  10030-3 0  9993
2 53994  53.2176  26.9385 0001283  93.9342 266.1797 15.08834791 98903
STARLINK-5097           
1 53995U 22125AH  24199.75673667 -.00000051  00000+0  14918-4 0  9998
2 53995  53.2179  27.2916 0001485 110.5471 249.5681 15.08836311 98888
STARLINK-5131           
1 53996U 22125AJ  24199.81191973  .00000841  00000+0  70924-4 0  9996
2 53996  53.2176  26.9184 0001303  96.7563 263.3578 15.08840545 98901
